[{"OBJECT_NAME":"NUSAT-41 (C PAYNE-G)","OBJECT_ID":"2023-084N","EPOCH":"2026-03-09T21:55:54.837696","MEAN_MOTION":15.29680045,"ECCENTRICITY":0.00062175,"INCLINATION":97.5351,"RA_OF_ASC_NODE":204.1011,"ARG_OF_PERICENTER":322.2064,"MEAN_ANOMALY":37.8738,"EPHEMERIS_TYPE":0,"CLASSIFICATION_TYPE":"U","NORAD_CAT_ID":56944,"ELEMENT_SET_NO":999,"REV_AT_EPOCH":15260,"BSTAR":0.00059912824,"MEAN_MOTION_DOT":0.0001718,"MEAN_MOTION_DDOT":0},{"OBJECT_NAME":"STARLINK-31744","OBJECT_ID":"2024-071L","EPOCH":"2026-03-08T05:29:58.821792","MEAN_MOTION":15.27607308,"ECCENTRICITY":0.0001065,"INCLINATION":43.0052,"RA_OF_ASC_NODE":355.6563,"ARG_OF_PERICENTER":283.7136,"MEAN_ANOMALY":76.3597,"EPHEMERIS_TYPE":0,"CLASSIFICATION_TYPE":"U","NORAD_CAT_ID":59494,"ELEMENT_SET_NO":999,"REV_AT_EPOCH":10789,"BSTAR":7.373183e-5,"MEAN_MOTION_DOT":1.769e-5,"MEAN_MOTION_DDOT":0}]
